COMMENT,ORIGINATOR,NORAD_CAT_ID,OBJECT_NAME,OBJECT_TYPE,CLASSIFICATION_TYPE,INTLDES,EPOCH,EPOCH_MICROSECONDS,MEAN_MOTION,ECCENTRICITY,INCLINATION,RA_OF_ASC_NODE,ARG_OF_PERICENTER,MEAN_ANOMALY,EPHEMERIS_TYPE,ELEMENT_SET_NO,REV_AT_EPOCH,BSTAR,MEAN_MOTION_DOT,MEAN_MOTION_DDOT,FILE,TLE_LINE0,TLE_LINE1,TLE_LINE2,OBJECT_ID,OBJECT_NUMBER,SEMIMAJOR_AXIS,PERIOD,APOGEE,PERIGEE,DECAYED,date
GENERATED VIA SPACETRACK.ORG API,18 SPCS,48888,SPACEBEE-103,PAYLOAD,U,21059K,2023/4/6 7:49,200576,15.27166755,0.0007924,97.5847,231.8291,168.9159,191.2255,0,999,9841,0.001407,0.0003758,0,3881771,0 SPACEBEE-103,1 48888U 21059K   23096.32602084  .00037580  00000-0  14070-2 0  9995,2 48888  97.5847 231.8291 0007924 168.9159 191.2255 15.27166755 98417,2021-059K,48888,6862.424,94.292,489.727,478.851,0,
GENERATED VIA SPACETRACK.ORG API,18 SPCS,48888,SPACEBEE-103,PAYLOAD,U,21059K,2023/4/7 8:59,437888,15.27248355,0.0007921,97.5853,232.8945,164.7945,195.3533,0,999,9857,0.0014573,0.0003903,0,3882547,0 SPACEBEE-103,1 48888U 21059K   23097.37435692  .00039030  00000-0  14573-2 0  9990,2 48888  97.5853 232.8945 0007921 164.7945 195.3533 15.27248355 98573,2021-059K,48888,6862.179,94.287,489.48,478.609,0,
GENERATED VIA SPACETRACK.ORG API,18 SPCS,48888,SPACEBEE-103,PAYLOAD,U,21059K,2023/4/7 8:59,437888,15.27248355,0.0007921,97.5853,232.8945,164.7945,195.3533,0,999,9857,0.0014573,0.0003903,0,3882626,0 SPACEBEE-103,1 48888U 21059K   23097.37435692  .00039030  00000-0  14573-2 0  9990,2 48888  97.5853 232.8945 0007921 164.7945 195.3533 15.27248355 98573,2021-059K,48888,6862.179,94.287,489.48,478.609,0,
GENERATED VIA SPACETRACK.ORG API,18 SPCS,48888,SPACEBEE-103,PAYLOAD,U,21059K,2023/4/8 8:34,411648,15.2731857,0.0007884,97.5855,233.8934,161.7974,198.3548,0,999,9872,0.0013226,0.00035474,0,3883527,0 SPACEBEE-103,1 48888U 21059K   23098.35712282  .00035474  00000-0  13226-2 0  9994,2 48888  97.5855 233.8934 0007884 161.7974 198.3548 15.27318570 98724,2021-059K,48888,6861.969,94.283,489.244,478.424,0,
GENERATED VIA SPACETRACK.ORG API,18 SPCS,48888,SPACEBEE-103,PAYLOAD,U,21059K,2023/4/8 14:51,671264,15.27336649,0.0007883,97.5855,234.1598,161.0919,199.0613,0,999,9876,0.0013083,0.00035107,0,3883724,0 SPACEBEE-103,1 48888U 21059K   23098.61918601  .00035107  00000-0  13083-2 0  9990,2 48888  97.5855 234.1598 0007883 161.0919 199.0613 15.27336649 98767,2021-059K,48888,6861.915,94.282,489.189,478.371,0,
GENERATED VIA SPACETRACK.ORG API,18 SPCS,48888,SPACEBEE-103,PAYLOAD,U,21059K,2023/4/9 8:09,463712,15.27388506,0.000779,97.5858,234.8927,159.2703,200.8853,0,999,9887,0.0013177,0.00035416,0,3884332,0 SPACEBEE-103,1 48888U 21059K   23099.33984333  .00035416  00000-0  13177-2 0  9992,2 48888  97.5858 234.8927 0007790 159.2703 200.8853 15.27388506 98878,2021-059K,48888,6861.76,94.279,488.97,478.279,0,
GENERATED VIA SPACETRACK.ORG API,18 SPCS,48888,SPACEBEE-103,PAYLOAD,U,21059K,2023/4/9 19:09,496288,15.27419115,0.0007813,97.586,235.3591,157.6301,202.528,0,999,9894,0.0012844,0.00034548,0,3884562,0 SPACEBEE-103,1 48888U 21059K   23099.79843167  .00034548  00000-0  12844-2 0  9996,2 48888  97.5860 235.3591 0007813 157.6301 202.5280 15.27419115 98948,2021-059K,48888,6861.668,94.277,488.894,478.172,0,
GENERATED VIA SPACETRACK.ORG API,18 SPCS,48888,SPACEBEE-103,PAYLOAD,U,21059K,2023/4/9 19:09,496288,15.27419115,0.0007813,97.586,235.3591,157.6301,202.528,0,999,9894,0.0012844,0.00034548,0,3884641,0 SPACEBEE-103,1 48888U 21059K   23099.79843167  .00034548  00000-0  12844-2 0  9996,2 48888  97.5860 235.3591 0007813 157.6301 202.5280 15.27419115 98948,2021-059K,48888,6861.668,94.277,488.894,478.172,0,
GENERATED VIA SPACETRACK.ORG API,18 SPCS,48888,SPACEBEE-103,PAYLOAD,U,21059K,2023/4/10 7:44,770336,15.27457685,0.0007789,97.5859,235.892,155.9494,204.211,0,999,9902,0.0013719,0.00036961,0,3885195,0 SPACEBEE-103,1 48888U 21059K   23100.32252049  .00036961  00000-0  13719-2 0  9994,2 48888  97.5859 235.8920 0007789 155.9494 204.2110 15.27457685 99028,2021-059K,48888,6861.552,94.274,488.762,478.073,0,
GENERATED VIA SPACETRACK.ORG API,18 SPCS,48888,SPACEBEE-103,PAYLOAD,U,21059K,2023/4/10 20:19,778624,15.27502539,0.0007802,97.5862,236.4251,153.8753,206.2881,0,999,9910,0.0014963,0.00040393,0,3885321,0 SPACEBEE-103,1 48888U 21059K   23100.84659466  .00040393  00000-0  14963-2 0  9991,2 48888  97.5862 236.4251 0007802 153.8753 206.2881 15.27502539 99102,2021-059K,48888,6861.418,94.272,488.636,477.93,0,
GENERATED VIA SPACETRACK.ORG API,18 SPCS,48888,SPACEBEE-103,PAYLOAD,U,21059K,2023/4/10 20:19,778624,15.27502539,0.0007802,97.5862,236.4251,153.8753,206.2881,0,999,9910,0.0014963,0.00040393,0,3885363,0 SPACEBEE-103,1 48888U 21059K   23100.84659466  .00040393  00000-0  14963-2 0  9991,2 48888  97.5862 236.4251 0007802 153.8753 206.2881 15.27502539 99102,2021-059K,48888,6861.418,94.272,488.636,477.93,0,
GENERATED VIA SPACETRACK.ORG API,18 SPCS,48888,SPACEBEE-103,PAYLOAD,U,21059K,2023/4/11 8:53,604960,15.27537958,0.0007827,97.5858,236.9578,152.2805,207.8852,0,999,9918,0.0012539,0.00033844,0,3885783,0 SPACEBEE-103,1 48888U 21059K   23101.37065515  .00033844  00000-0  12539-2 0  9996,2 48888  97.5858 236.9578 0007827 152.2805 207.8852 15.27537958 99188,2021-059K,48888,6861.312,94.269,488.547,477.807,0,
GENERATED VIA SPACETRACK.ORG API,18 SPCS,48888,SPACEBEE-103,PAYLOAD,U,21059K,2023/4/11 8:53,604960,15.27537958,0.0007827,97.5858,236.9578,152.2805,207.8852,0,999,9918,0.0012539,0.00033844,0,3885883,0 SPACEBEE-103,1 48888U 21059K   23101.37065515  .00033844  00000-0  12539-2 0  9996,2 48888  97.5858 236.9578 0007827 152.2805 207.8852 15.27537958 99188,2021-059K,48888,6861.312,94.269,488.547,477.807,0,
GENERATED VIA SPACETRACK.ORG API,18 SPCS,48888,SPACEBEE-103,PAYLOAD,U,21059K,2023/4/11 21:28,261440,15.27577054,0.0007833,97.5859,237.4912,150.3167,209.8518,0,999,9926,0.0012174,0.00032892,0,3885919,0 SPACEBEE-103,1 48888U 21059K   23101.89470210  .00032892  00000-0  12174-2 0  9992,2 48888  97.5859 237.4912 0007833 150.3167 209.8518 15.27577054 99265,2021-059K,48888,6861.195,94.267,488.434,477.686,0,
GENERATED VIA SPACETRACK.ORG API,18 SPCS,48888,SPACEBEE-103,PAYLOAD,U,21059K,2023/4/12 8:28,246528,15.27611108,0.0007798,97.5861,237.9576,149.1981,210.9717,0,999,9933,0.0012456,0.00033694,0,3886349,0 SPACEBEE-103,1 48888U 21059K   23102.35323202  .00033694  00000-0  12456-2 0  9996,2 48888  97.5861 237.9576 0007798 149.1981 210.9717 15.27611108 99330,2021-059K,48888,6861.093,94.265,488.308,477.608,0,
GENERATED VIA SPACETRACK.ORG API,18 SPCS,48888,SPACEBEE-103,PAYLOAD,U,21059K,2023/4/12 14:45,131712,15.2763073,0.0007775,97.5859,238.2242,148.6651,211.5052,0,999,9937,0.0012801,0.00034654,0,3886465,0 SPACEBEE-103,1 48888U 21059K   23102.61524458  .00034654  00000-0  12801-2 0  9992,2 48888  97.5859 238.2242 0007775 148.6651 211.5052 15.27630730 99379,2021-059K,48888,6861.034,94.264,488.234,477.565,0,
GENERATED VIA SPACETRACK.ORG API,18 SPCS,48888,SPACEBEE-103,PAYLOAD,U,21059K,2023/4/13 8:03,877408,15.2768493,0.0007697,97.5859,238.9574,146.6842,213.4882,0,999,9948,0.0013443,0.00036464,0,3886564,0 SPACEBEE-103,1 48888U 21059K   23103.33576247  .00036464  00000-0  13443-2 0  9999,2 48888  97.5859 238.9574 0007697 146.6842 213.4882 15.27684930 99482,2021-059K,48888,6860.872,94.26,488.018,477.456,0,
GENERATED VIA SPACETRACK.ORG API,18 SPCS,48888,SPACEBEE-103,PAYLOAD,U,21059K,2023/4/13 20:38,184512,15.27727507,0.0007667,97.5857,239.4904,144.4274,215.7477,0,999,9956,0.0014155,0.00038459,0,3886870,0 SPACEBEE-103,1 48888U 21059K   23103.85975908  .00038459  00000-0  14155-2 0  9990,2 48888  97.5857 239.4904 0007667 144.4274 215.7477 15.27727507 99567,2021-059K,48888,6860.744,94.258,487.87,477.349,0,
GENERATED VIA SPACETRACK.ORG API,18 SPCS,48888,SPACEBEE-103,PAYLOAD,U,21059K,2023/4/14 7:38,262592,15.27767639,0.0007672,97.5858,239.9567,142.676,217.5013,0,999,9963,0.0015499,0.0004219,0,3887333,0 SPACEBEE-103,1 48888U 21059K   23104.31824378  .00042190  00000-0  15499-2 0  9995,2 48888  97.5858 239.9567 0007672 142.6760 217.5013 15.27767639 99638,2021-059K,48888,6860.624,94.255,487.753,477.226,0,
GENERATED VIA SPACETRACK.ORG API,18 SPCS,48888,SPACEBEE-103,PAYLOAD,U,21059K,2023/4/14 21:47,809632,15.27822089,0.0007666,97.5858,240.5566,140.532,219.6479,0,999,9972,0.0016603,0.00045294,0,3887546,0 SPACEBEE-103,1 48888U 21059K   23104.90770613  .00045294  00000-0  16603-2 0  9998,2 48888  97.5858 240.5566 0007666 140.5320 219.6479 15.27822089 99727,2021-059K,48888,6860.461,94.252,487.586,477.067,0,
GENERATED VIA SPACETRACK.ORG API,18 SPCS,48888,SPACEBEE-103,PAYLOAD,U,21059K,2023/4/15 8:47,427040,15.27863721,0.0007626,97.5857,241.0234,139.0258,221.1555,0,999,9979,0.001663,0.00045426,0,3887974,0 SPACEBEE-103,1 48888U 21059K   23105.36616235  .00045426  00000-0  16630-2 0  9995,2 48888  97.5857 241.0234 0007626 139.0258 221.1555 15.27863721 99791,2021-059K,48888,6860.337,94.249,487.433,476.97,0,
GENERATED VIA SPACETRACK.ORG API,18 SPCS,48888,SPACEBEE-103,PAYLOAD,U,21059K,2023/4/15 21:21,282304,15.2791557,0.0007589,97.5857,241.5566,137.3892,222.7937,0,999,9987,0.0017142,0.00046909,0,3888171,0 SPACEBEE-103,1 48888U 21059K   23105.89009586  .00046909  00000-0  17142-2 0  9994,2 48888  97.5857 241.5566 0007589 137.3892 222.7937 15.27915570 99877,2021-059K,48888,6860.181,94.246,487.253,476.84,0,
GENERATED VIA SPACETRACK.ORG API,18 SPCS,48888,SPACEBEE-103,PAYLOAD,U,21059K,2023/4/16 8:21,459776,15.27957593,0.000755,97.5856,242.0234,135.8879,224.2963,0,999,9994,0.0016626,0.00045544,0,3888626,0 SPACEBEE-103,1 48888U 21059K   23106.34852384  .00045544  00000-0  16626-2 0  9997,2 48888  97.5856 242.0234 0007550 135.8879 224.2963 15.27957593 99945,2021-059K,48888,6860.056,94.243,487.1,476.741,0,
